NORAD_CAT_ID,OBJECT_NAME,OBJECT_TYPE,EPOCH,MEAN_MOTION,ECCENTRICITY,INCLINATION,RA_OF_ASC_NODE,ARG_OF_PERICENTER,MEAN_ANOMALY,BSTAR,MEAN_MOTION_DOT,MEAN_MOTION_DDOT,TLE_LINE0,TLE_LINE1,TLE_LINE2,SEMIMAJOR_AXIS,PERIOD,APOGEE,PERIGEE,DECAYED
51979.0,STARLINK-3656,PAYLOAD,2024-05-17 16:18:07,15.08841024,0.0001644,53.218,126.5133,81.7444,278.3734,-7.2436e-05,-1.441e-05,0.0,0 STARLINK-3656,1 51979U 22025Z   24138.67925233 -.00001441  00000-0 -72436-4 0  9995,2 51979  53.2180 126.5133 0001644  81.7444 278.3734 15.08841024122389,6917.877,95.437,540.88,538.605,0.0
51979.0,STARLINK-3656,PAYLOAD,2024-05-18 08:11:58,15.0884192,0.0001537,53.2178,123.5384,83.425,276.6917,3.4833e-05,2.66e-06,0.0,0 STARLINK-3656,1 51979U 22025Z   24139.34164991  .00000266  00000-0  34833-4 0  9997,2 51979  53.2178 123.5384 0001537  83.4250 276.6917 15.08841920121373,6917.875,95.437,540.803,538.676,0.0
51979.0,STARLINK-3656,PAYLOAD,2024-05-18 16:08:53,15.08850464,0.0001503,53.2174,122.0533,89.7521,270.3643,9.2196e-05,1.18e-05,0.0,0 STARLINK-3656,1 51979U 22025Z   24139.67284156  .00001180  00000-0  92196-4 0  9991,2 51979  53.2174 122.0533 0001503  89.7521 270.3643 15.08850464122531,6917.848,95.437,540.753,538.674,0.0
51979.0,STARLINK-3656,PAYLOAD,2024-05-19 04:51:59,15.08839061,0.0001046,53.2171,119.674,71.6989,288.4116,8.4493e-06,-1.53e-06,0.0,0 STARLINK-3656,1 51979U 22025Z   24140.20276958 -.00000153  00000-0  84493-5 0  9995,2 51979  53.2171 119.6740 0001046  71.6989 288.4116 15.08839061122614,6917.883,95.438,540.472,539.025,0.0
51979.0,STARLINK-3656,PAYLOAD,2024-05-19 08:02:46,15.08824055,0.0001366,53.2177,119.0783,86.8184,273.2964,-9.5874e-05,-1.813e-05,0.0,0 STARLINK-3656,1 51979U 22025Z   24140.33526238 -.00001813  00000-0 -95874-4 0  9997,2 51979  53.2177 119.0783 0001366  86.8184 273.2964 15.08824055121520,6917.929,95.439,540.739,538.849,0.0
51979.0,STARLINK-3656,PAYLOAD,2024-05-20 04:42:46,15.08840932,0.000108,53.2164,115.2158,105.9173,254.1938,4.4389e-05,4.19e-06,0.0,0 STARLINK-3656,1 51979U 22025Z   24141.19637243  .00000419  00000-0  44389-4 0  9995,2 51979  53.2164 115.2158 0001080 105.9173 254.1938 15.08840932122762,6917.878,95.437,540.49,538.995,0.0
51979.0,STARLINK-3656,PAYLOAD,2024-05-20 07:53:32,15.08846915,0.0001211,53.2169,114.6182,89.2573,270.8558,8.8884e-05,1.127e-05,0.0,0 STARLINK-3656,1 51979U 22025Z   24141.32884838  .00001127  00000-0  88884-4 0  9999,2 51979  53.2169 114.6182 0001211  89.2573 270.8558 15.08846915121670,6917.859,95.437,540.562,538.886,0.0
51979.0,STARLINK-3656,PAYLOAD,2024-05-21 04:33:34,15.08831134,0.0001499,53.2168,110.7467,109.0543,251.0612,0.00033332,5.02e-05,0.0,0 STARLINK-3656,1 51979U 22025Z   24142.18997864  .00005020  00000-0  33332-3 0  9991,2 51979  53.2168 110.7467 0001499 109.0543 251.0612 15.08831134122915,6917.907,95.438,540.809,538.735,0.0
51979.0,STARLINK-3656,PAYLOAD,2024-05-21 22:02:48,15.08839461,0.0001468,53.2174,107.4766,100.7472,259.3686,-4.9849e-05,-1.081e-05,0.0,0 STARLINK-3656,1 51979U 22025Z   24142.91861867 -.00001081  00000-0 -49849-4 0  9991,2 51979  53.2174 107.4766 0001468 100.7472 259.3686 15.08839461121914,6917.882,95.438,540.763,538.731,0.0
51979.0,STARLINK-3656,PAYLOAD,2024-05-22 02:48:57,15.08840375,0.0001469,53.2183,106.587,109.0434,251.0717,5.2227e-05,5.43e-06,0.0,0 STARLINK-3656,1 51979U 22025Z   24143.11733768  .00000543  00000-0  52227-4 0  9996,2 51979  53.2183 106.5870 0001469 109.0434 251.0717 15.08840375121944,6917.879,95.438,540.76,538.728,0.0
51979.0,STARLINK-3656,PAYLOAD,2024-05-22 21:53:36,15.08835383,0.0001473,53.2191,103.0257,106.5649,253.5505,6.047e-05,6.74e-06,0.0,0 STARLINK-3656,1 51979U 22025Z   24143.91222328  .00000674  00000-0  60470-4 0  9993,2 51979  53.2191 103.0257 0001473 106.5649 253.5505 15.08835383122068,6917.895,95.438,540.779,538.74,0.0
51979.0,STARLINK-3656,PAYLOAD,2024-05-23 04:15:08,15.08837079,0.000151,53.2188,101.8352,108.3968,251.7188,6.9176e-05,8.13e-06,0.0,0 STARLINK-3656,1 51979U 22025Z   24144.17718212  .00000813  00000-0  69176-4 0  9991,2 51979  53.2188 101.8352 0001510 108.3968 251.7188 15.08837079123211,6917.889,95.438,540.799,538.71,0.0
51979.0,STARLINK-3656,PAYLOAD,2024-05-24 07:16:41,15.08844318,0.0001454,53.2181,96.775,103.0035,257.112,0.00011461,1.537e-05,0.0,0 STARLINK-3656,1 51979U 22025Z   24145.30325778  .00001537  00000-0  11461-3 0  9995,2 51979  53.2181  96.7750 0001454 103.0035 257.1120 15.08844318123380,6917.867,95.437,540.738,538.726,0.0
51979.0,STARLINK-3656,PAYLOAD,2024-05-24 19:59:47,15.08833822,0.0001468,53.2178,94.3917,113.7939,246.3207,1.569e-05,-3.8e-07,0.0,0 STARLINK-3656,1 51979U 22025Z   24145.83318829 -.00000038  00000-0  15690-4 0  9997,2 51979  53.2178  94.3917 0001468 113.7939 246.3207 15.08833822123464,6917.899,95.438,540.78,538.749,0.0
51979.0,STARLINK-3656,PAYLOAD,2024-05-25 13:29:02,15.08834748,0.0001271,53.2184,91.1278,93.5819,266.5319,1.9388e-05,2.1e-07,0.0,0 STARLINK-3656,1 51979U 22025Z   24146.56182927  .00000021  00000-0  19388-4 0  9995,2 51979  53.2184  91.1278 0001271  93.5819 266.5319 15.08834748122465,6917.896,95.438,540.641,538.882,0.0
51979.0,STARLINK-3656,PAYLOAD,2024-05-26 03:47:29,15.08846526,0.00013,53.218,88.4504,91.1893,268.9248,1.5825e-05,-3.6e-07,0.0,0 STARLINK-3656,1 51979U 22025Z   24147.15798366 -.00000036  00000-0  15825-4 0  9990,2 51979  53.2180  88.4504 0001300  91.1893 268.9248 15.08846526123668,6917.86,95.437,540.625,538.826,0.0
51979.0,STARLINK-3656,PAYLOAD,2024-05-26 05:22:52,15.08847301,0.0001288,53.218,88.1527,93.9612,266.1527,2.6115e-05,1.28e-06,0.0,0 STARLINK-3656,1 51979U 22025Z   24147.22422253  .00000128  00000-0  26115-4 0  9992,2 51979  53.2180  88.1527 0001288  93.9612 266.1527 15.08847301122564,6917.858,95.437,540.614,538.832,0.0
51979.0,STARLINK-3656,PAYLOAD,2024-05-27 02:02:53,15.08840609,0.0001419,53.2183,84.2877,88.4809,271.6346,6.9387e-05,8.17e-06,0.0,0 STARLINK-3656,1 51979U 22025Z   24148.08534672  .00000817  00000-0  69387-4 0  9999,2 51979  53.2183  84.2877 0001419  88.4809 271.6346 15.08840609123807,6917.879,95.438,540.725,538.762,0.0
51979.0,STARLINK-3656,PAYLOAD,2024-05-27 22:42:54,15.08845235,0.0001356,53.2168,80.4209,92.7785,267.3362,5.9083e-05,6.53e-06,0.0,0 STARLINK-3656,1 51979U 22025Z   24148.94646288  .00000653  00000-0  59083-4 0  9991,2 51979  53.2168  80.4209 0001356  92.7785 267.3362 15.08845235122829,6917.864,95.437,540.667,538.791,0.0
51979.0,STARLINK-3656,PAYLOAD,2024-05-28 05:04:26,15.0884875,0.0001402,53.2174,79.2316,88.1647,271.9505,8.0668e-05,9.96e-06,0.0,0 STARLINK-3656,1 51979U 22025Z   24149.21141928  .00000996  00000-0  80668-4 0  9996,2 51979  53.2174  79.2316 0001402  88.1647 271.9505 15.08848750123971,6917.854,95.437,540.689,538.749,0.0
51979.0,STARLINK-3656,PAYLOAD,2024-05-28 22:33:41,15.08842516,0.0001331,53.2177,75.9544,95.2224,264.892,-3.8395e-05,-8.99e-06,0.0,0 STARLINK-3656,1 51979U 22025Z   24149.94006502 -.00000899  00000-0 -38395-4 0  9998,2 51979  53.2177  75.9544 0001331  95.2224 264.8920 15.08842516122976,6917.873,95.437,540.658,538.817,0.0
51979.0,STARLINK-3656,PAYLOAD,2024-05-29 04:55:14,15.08838662,0.0001465,53.2186,74.7694,106.8379,253.2774,-1.2575e-05,-4.88e-06,0.0,0 STARLINK-3656,1 51979U 22025Z   24150.20502627 -.00000488  00000-0 -12575-4 0  9994,2 51979  53.2186  74.7694 0001465 106.8379 253.2774 15.08838662124122,6917.884,95.438,540.763,538.736,0.0
51979.0,STARLINK-3656,PAYLOAD,2024-05-29 22:24:28,15.08845756,0.0001273,53.2185,71.4987,103.8609,256.2525,-4.0479e-05,-9.32e-06,0.0,0 STARLINK-3656,1 51979U 22025Z   24150.93366336 -.00000932  00000-0 -40479-4 0  9997,2 51979  53.2185  71.4987 0001273 103.8609 256.2525 15.08845756123128,6917.863,95.437,540.608,538.847,0.0
51979.0,STARLINK-3656,PAYLOAD,2024-05-30 04:46:00,15.08847798,0.0001324,53.2187,70.3104,104.8101,255.3038,-1.5692e-05,-5.38e-06,0.0,0 STARLINK-3656,1 51979U 22025Z   24151.19862051 -.00000538  00000-0 -15692-4 0  9992,2 51979  53.2187  70.3104 0001324 104.8101 255.3038 15.08847798124278,6917.857,95.437,540.637,538.806,0.0
51979.0,STARLINK-3656,PAYLOAD,2024-05-30 22:15:15,15.08837773,0.00014,53.2188,67.0391,95.5327,264.5825,4.9284e-05,4.96e-06,0.0,0 STARLINK-3656,1 51979U 22025Z   24151.92726651  .00000496  00000-0  49284-4 0  9993,2 51979  53.2188  67.0391 0001400  95.5327 264.5825 15.08837773123278,6917.887,95.438,540.721,538.784,0.0
51979.0,STARLINK-3656,PAYLOAD,2024-05-30 23:50:38,15.08838378,0.0001408,53.2189,66.7418,94.5559,265.5594,5.352e-05,5.64e-06,0.0,0 STARLINK-3656,1 51979U 22025Z   24151.99350610  .00000564  00000-0  53520-4 0  9992,2 51979  53.2189  66.7418 0001408  94.5559 265.5594 15.08838378124399,6917.885,95.438,540.724,538.776,0.0
51979.0,STARLINK-3656,PAYLOAD,2024-05-31 18:55:17,15.08830354,0.0001419,53.2184,63.1752,85.0892,275.0262,-8.7291e-05,-1.677e-05,0.0,0 STARLINK-3656,1 51979U 22025Z   24152.78839914 -.00001677  00000-0 -87291-4 0  9999,2 51979  53.2184  63.1752 0001419  85.0892 275.0262 15.08830354124511,6917.91,95.438,540.757,538.793,0.0
51979.0,STARLINK-3656,PAYLOAD,2024-05-31 22:06:03,15.08834318,0.0001676,53.2205,62.583,96.5759,263.5424,-6.8186e-05,-1.373e-05,0.0,0 STARLINK-3656,1 51979U 22025Z   24152.92087717 -.00001373  00000-0 -68186-4 0  9996,2 51979  53.2205  62.5830 0001676  96.5759 263.5424 15.08834318123424,6917.898,95.438,540.922,538.603,0.0
51979.0,STARLINK-3656,PAYLOAD,2024-06-01 04:27:35,15.08841094,0.0001248,53.2171,61.3913,77.5069,282.6063,1.0054e-05,-1.28e-06,0.0,0 STARLINK-3656,1 51979U 22025Z   24153.18583039 -.00000128  00000-0  10054-4 0  9990,2 51979  53.2171  61.3913 0001248  77.5069 282.6063 15.08841094124570,6917.877,95.437,540.605,538.879,0.0
51979.0,STARLINK-3656,PAYLOAD,2024-06-01 10:49:08,15.08839686,0.000129,53.2175,60.2023,86.4959,273.6181,1.4273e-05,-6.1e-07,0.0,0 STARLINK-3656,1 51979U 22025Z   24153.45079092 -.00000061  00000-0  14273-4 0  9992,2 51979  53.2175  60.2023 0001290  86.4959 273.6181 15.08839686123505,6917.881,95.438,540.639,538.854,0.0
